[{"OBJECT_NAME":"OBJECT F","OBJECT_ID":"2024-153F","EPOCH":"2026-03-09T23:13:25.507776","MEAN_MOTION":15.23037528,"ECCENTRICITY":0.00053669,"INCLINATION":97.6558,"RA_OF_ASC_NODE":203.2719,"ARG_OF_PERICENTER":225.0651,"MEAN_ANOMALY":135.0151,"EPHEMERIS_TYPE":0,"CLASSIFICATION_TYPE":"U","NORAD_CAT_ID":60750,"ELEMENT_SET_NO":999,"REV_AT_EPOCH":8468,"BSTAR":0.00084475391,"MEAN_MOTION_DOT":0.00019856,"MEAN_MOTION_DDOT":0},{"OBJECT_NAME":"HERMES-6","OBJECT_ID":"2025-052BK","EPOCH":"2026-03-09T21:29:23.907840","MEAN_MOTION":15.21631048,"ECCENTRICITY":0.00073357,"INCLINATION":97.4102,"RA_OF_ASC_NODE":322.8569,"ARG_OF_PERICENTER":144.5073,"MEAN_ANOMALY":215.6652,"EPHEMERIS_TYPE":0,"CLASSIFICATION_TYPE":"U","NORAD_CAT_ID":63489,"ELEMENT_SET_NO":999,"REV_AT_EPOCH":5472,"BSTAR":0.00042019054,"MEAN_MOTION_DOT":9.433e-5,"MEAN_MOTION_DDOT":0}]
